[{"OBJECT_NAME":"STARLINK-31598","OBJECT_ID":"2024-050K","EPOCH":"2026-03-09T15:04:59.250720","MEAN_MOTION":15.30183586,"ECCENTRICITY":0.0001335,"INCLINATION":53.1619,"RA_OF_ASC_NODE":181.6524,"ARG_OF_PERICENTER":82.4699,"MEAN_ANOMALY":277.6453,"EPHEMERIS_TYPE":0,"CLASSIFICATION_TYPE":"U","NORAD_CAT_ID":59263,"ELEMENT_SET_NO":999,"REV_AT_EPOCH":11053,"BSTAR":9.4387e-6,"MEAN_MOTION_DOT":-8.0e-7,"MEAN_MOTION_DDOT":0},{"OBJECT_NAME":"COSMOS 2588","OBJECT_ID":"2025-109A","EPOCH":"2026-03-09T19:28:59.107008","MEAN_MOTION":15.29122656,"ECCENTRICITY":0.0005019,"INCLINATION":72.9704,"RA_OF_ASC_NODE":73.5401,"ARG_OF_PERICENTER":308.678,"MEAN_ANOMALY":51.3966,"EPHEMERIS_TYPE":0,"CLASSIFICATION_TYPE":"U","NORAD_CAT_ID":64095,"ELEMENT_SET_NO":999,"REV_AT_EPOCH":4442,"BSTAR":0.00032611,"MEAN_MOTION_DOT":9.169e-5,"MEAN_MOTION_DDOT":0}]
